{
  "type": "FeatureCollection",
  "properties": {
    "generated_utc": "2026-10-03T17:35:45Z",
    "sources": [
      "VIIRS_SNPP_NRT",
      "VIIRS_NOAA20_NRT",
      "MODIS_NRT"
    ],
    "day_range": 2,
    "count": 243,
    "min_frp_mw": 50.0,
    "below_frp_floor": 19098,
    "stale": false,
    "note": ""
  },
  "features": [
    {
      "type": "Feature",
      "geometry": {
        "type": "Point",
        "coordinates": [
          105.3774,
          -4.3302
        ]
      },
      "properties": {
        "source": "VIIRS_SNPP_NRT",
        "satellite": "N",
        "acq_utc": "2026-10-03T06:03Z",
        "confidence": "n",
        "frp": 56.54,
        "brightness": 340.63,
        "daynight": "D"
      }
    },
    {
      "type": "Feature",
      "geometry": {
        "type": "Point",
        "coordinates": [
          105.3805,
          -4.3297
        ]
      },
      "properties": {
        "source": "VIIRS_SNPP_NRT",
        "satellite": "N",
        "acq_utc": "2026-10-03T06:03Z",
        "confidence": "n",
        "frp": 56.54,
        "brightness": 349.56,
        "daynight": "D"
      }
    },
    {
      "type": "Feature",
      "geometry": {
        "type": "Point",
        "coordinates": [
          105.3836,
          -4.3293
        ]
      },
      "properties": {
        "source": "VIIRS_SNPP_NRT",
        "satellite": "N",
        "acq_utc": "2026-10-03T06:03Z",
        "confidence": "h",
        "frp": 54.58,
        "brightness": 367.0,
        "daynight": "D"
      }
    },
    {
      "type": "Feature",
      "geometry": {
        "type": "Point",
        "coordinates": [
          116.137,
          -3.767
        ]
      },
      "properties": {
        "source": "VIIRS_SNPP_NRT",
        "satellite": "N",
        "acq_utc": "2026-10-03T06:03Z",
        "confidence": "n",
        "frp": 246.75,
        "brightness": 346.12,
        "daynight": "D"
      }
    },
    {
      "type": "Feature",
      "geometry": {
        "type": "Point",
        "coordinates": [
          116.1441,
          -3.7624
        ]
      },
      "properties": {
        "source": "VIIRS_SNPP_NRT",
        "satellite": "N",
        "acq_utc": "2026-10-03T06:03Z",
        "confidence": "n",
        "frp": 149.92,
        "brightness": 348.9,
        "daynight": "D"
      }
    },
    {
      "type": "Feature",
      "geometry": {
        "type": "Point",
        "coordinates": [
          105.1186,
          -3.7321
        ]
      },
      "properties": {
        "source": "VIIRS_SNPP_NRT",
        "satellite": "N",
        "acq_utc": "2026-10-03T06:03Z",
        "confidence": "n",
        "frp": 59.01,
        "brightness": 333.81,
        "daynight": "D"
      }
    },
    {
      "type": "Feature",
      "geometry": {
        "type": "Point",
        "coordinates": [
          105.1217,
          -3.7316
        ]
      },
      "properties": {
        "source": "VIIRS_SNPP_NRT",
        "satellite": "N",
        "acq_utc": "2026-10-03T06:03Z",
        "confidence": "n",
        "frp": 59.01,
        "brightness": 351.06,
        "daynight": "D"
      }
    },
    {
      "type": "Feature",
      "geometry": {
        "type": "Point",
        "coordinates": [
          105.7026,
          -3.5283
        ]
      },
      "properties": {
        "source": "VIIRS_SNPP_NRT",
        "satellite": "N",
        "acq_utc": "2026-10-03T06:03Z",
        "confidence": "n",
        "frp": 53.15,
        "brightness": 341.6,
        "daynight": "D"
      }
    },
    {
      "type": "Feature",
      "geometry": {
        "type": "Point",
        "coordinates": [
          105.7083,
          -3.5275
        ]
      },
      "properties": {
        "source": "VIIRS_SNPP_NRT",
        "satellite": "N",
        "acq_utc": "2026-10-03T06:03Z",
        "confidence": "n",
        "frp": 53.15,
        "brightness": 343.22,
        "daynight": "D"
      }
    },
    {
      "type": "Feature",
      "geometry": {
        "type": "Point",
        "coordinates": [
          105.7019,
          -3.5233
        ]
      },
      "properties": {
        "source": "VIIRS_SNPP_NRT",
        "satellite": "N",
        "acq_utc": "2026-10-03T06:03Z",
        "confidence": "n",
        "frp": 53.15,
        "brightness": 332.96,
        "daynight": "D"
      }
    },
    {
      "type": "Feature",
      "geometry": {
        "type": "Point",
        "coordinates": [
          105.1055,
          -3.4344
        ]
      },
      "properties": {
        "source": "VIIRS_SNPP_NRT",
        "satellite": "N",
        "acq_utc": "2026-10-03T06:03Z",
        "confidence": "n",
        "frp": 111.61,
        "brightness": 341.11,
        "daynight": "D"
      }
    },
    {
      "type": "Feature",
      "geometry": {
        "type": "Point",
        "coordinates": [
          105.1087,
          -3.4339
        ]
      },
      "properties": {
        "source": "VIIRS_SNPP_NRT",
        "satellite": "N",
        "acq_utc": "2026-10-03T06:03Z",
        "confidence": "n",
        "frp": 111.61,
        "brightness": 341.81,
        "daynight": "D"
      }
    },
    {
      "type": "Feature",
      "geometry": {
        "type": "Point",
        "coordinates": [
          105.1627,
          -3.3887
        ]
      },
      "properties": {
        "source": "VIIRS_SNPP_NRT",
        "satellite": "N",
        "acq_utc": "2026-10-03T06:03Z",
        "confidence": "n",
        "frp": 63.49,
        "brightness": 332.37,
        "daynight": "D"
      }
    },
    {
      "type": "Feature",
      "geometry": {
        "type": "Point",
        "coordinates": [
          105.1658,
          -3.3883
        ]
      },
      "properties": {
        "source": "VIIRS_SNPP_NRT",
        "satellite": "N",
        "acq_utc": "2026-10-03T06:03Z",
        "confidence": "n",
        "frp": 63.49,
        "brightness": 355.83,
        "daynight": "D"
      }
    },
    {
      "type": "Feature",
      "geometry": {
        "type": "Point",
        "coordinates": [
          111.8531,
          -3.2657
        ]
      },
      "properties": {
        "source": "VIIRS_SNPP_NRT",
        "satellite": "N",
        "acq_utc": "2026-10-03T06:03Z",
        "confidence": "h",
        "frp": 121.98,
        "brightness": 367.0,
        "daynight": "D"
      }
    },
    {
      "type": "Feature",
      "geometry": {
        "type": "Point",
        "coordinates": [
          112.1072,
          -3.2306
        ]
      },
      "properties": {
        "source": "VIIRS_SNPP_NRT",
        "satellite": "N",
        "acq_utc": "2026-10-03T06:03Z",
        "confidence": "h",
        "frp": 60.32,
        "brightness": 367.0,
        "daynight": "D"
      }
    },
    {
      "type": "Feature",
      "geometry": {
        "type": "Point",
        "coordinates": [
          111.5871,
          -2.9431
        ]
      },
      "properties": {
        "source": "VIIRS_SNPP_NRT",
        "satellite": "N",
        "acq_utc": "2026-10-03T06:03Z",
        "confidence": "h",
        "frp": 72.51,
        "brightness": 367.0,
        "daynight": "D"
      }
    },
    {
      "type": "Feature",
      "geometry": {
        "type": "Point",
        "coordinates": [
          110.8379,
          -2.8467
        ]
      },
      "properties": {
        "source": "VIIRS_SNPP_NRT",
        "satellite": "N",
        "acq_utc": "2026-10-03T06:03Z",
        "confidence": "h",
        "frp": 99.98,
        "brightness": 367.0,
        "daynight": "D"
      }
    },
    {
      "type": "Feature",
      "geometry": {
        "type": "Point",
        "coordinates": [
          111.5836,
          -2.665
        ]
      },
      "properties": {
        "source": "VIIRS_SNPP_NRT",
        "satellite": "N",
        "acq_utc": "2026-10-03T06:03Z",
        "confidence": "h",
        "frp": 137.15,
        "brightness": 367.0,
        "daynight": "D"
      }
    },
    {
      "type": "Feature",
      "geometry": {
        "type": "Point",
        "coordinates": [
          111.2125,
          -2.6536
        ]
      },
      "properties": {
        "source": "VIIRS_SNPP_NRT",
        "satellite": "N",
        "acq_utc": "2026-10-03T06:03Z",
        "confidence": "h",
        "frp": 54.41,
        "brightness": 367.0,
        "daynight": "D"
      }
    },
    {
      "type": "Feature",
      "geometry": {
        "type": "Point",
        "coordinates": [
          113.7256,
          -2.1113
        ]
      },
      "properties": {
        "source": "VIIRS_SNPP_NRT",
        "satellite": "N",
        "acq_utc": "2026-10-03T06:03Z",
        "confidence": "n",
        "frp": 85.74,
        "brightness": 343.74,
        "daynight": "D"
      }
    },
    {
      "type": "Feature",
      "geometry": {
        "type": "Point",
        "coordinates": [
          102.3277,
          -2.729
        ]
      },
      "properties": {
        "source": "VIIRS_SNPP_NRT",
        "satellite": "N",
        "acq_utc": "2026-10-03T06:05Z",
        "confidence": "n",
        "frp": 65.57,
        "brightness": 357.46,
        "daynight": "D"
      }
    },
    {
      "type": "Feature",
      "geometry": {
        "type": "Point",
        "coordinates": [
          102.332,
          -2.7284
        ]
      },
      "properties": {
        "source": "VIIRS_SNPP_NRT",
        "satellite": "N",
        "acq_utc": "2026-10-03T06:05Z",
        "confidence": "n",
        "frp": 65.57,
        "brightness": 339.1,
        "daynight": "D"
      }
    },
    {
      "type": "Feature",
      "geometry": {
        "type": "Point",
        "coordinates": [
          115.5382,
          -0.0849
        ]
      },
      "properties": {
        "source": "VIIRS_SNPP_NRT",
        "satellite": "N",
        "acq_utc": "2026-10-03T06:05Z",
        "confidence": "n",
        "frp": 53.63,
        "brightness": 338.27,
        "daynight": "D"
      }
    },
    {
      "type": "Feature",
      "geometry": {
        "type": "Point",
        "coordinates": [
          110.1446,
          -0.0452
        ]
      },
      "properties": {
        "source": "VIIRS_SNPP_NRT",
        "satellite": "N",
        "acq_utc": "2026-10-03T06:05Z",
        "confidence": "h",
        "frp": 88.19,
        "brightness": 367.0,
        "daynight": "D"
      }
    },
    {
      "type": "Feature",
      "geometry": {
        "type": "Point",
        "coordinates": [
          116.8311,
          -0.0208
        ]
      },
      "properties": {
        "source": "VIIRS_SNPP_NRT",
        "satellite": "N",
        "acq_utc": "2026-10-03T06:05Z",
        "confidence": "h",
        "frp": 94.59,
        "brightness": 367.0,
        "daynight": "D"
      }
    },
    {
      "type": "Feature",
      "geometry": {
        "type": "Point",
        "coordinates": [
          116.8356,
          -0.0201
        ]
      },
      "properties": {
        "source": "VIIRS_SNPP_NRT",
        "satellite": "N",
        "acq_utc": "2026-10-03T06:05Z",
        "confidence": "n",
        "frp": 94.59,
        "brightness": 343.24,
        "daynight": "D"
      }
    },
    {
      "type": "Feature",
      "geometry": {
        "type": "Point",
        "coordinates": [
          116.8305,
          -0.0171
        ]
      },
      "properties": {
        "source": "VIIRS_SNPP_NRT",
        "satellite": "N",
        "acq_utc": "2026-10-03T06:05Z",
        "confidence": "n",
        "frp": 94.59,
        "brightness": 350.29,
        "daynight": "D"
      }
    },
    {
      "type": "Feature",
      "geometry": {
        "type": "Point",
        "coordinates": [
          116.8441,
          0.2201
        ]
      },
      "properties": {
        "source": "VIIRS_SNPP_NRT",
        "satellite": "N",
        "acq_utc": "2026-10-03T06:05Z",
        "confidence": "n",
        "frp": 50.5,
        "brightness": 350.16,
        "daynight": "D"
      }
    },
    {
      "type": "Feature",
      "geometry": {
        "type": "Point",
        "coordinates": [
          116.7957,
          0.8072
        ]
      },
      "properties": {
        "source": "VIIRS_SNPP_NRT",
        "satellite": "N",
        "acq_utc": "2026-10-03T06:05Z",
        "confidence": "n",
        "frp": 57.46,
        "brightness": 351.58,
        "daynight": "D"
      }
    },
    {
      "type": "Feature",
      "geometry": {
        "type": "Point",
        "coordinates": [
          116.7918,
          0.8098
        ]
      },
      "properties": {
        "source": "VIIRS_SNPP_NRT",
        "satellite": "N",
        "acq_utc": "2026-10-03T06:05Z",
        "confidence": "n",
        "frp": 125.02,
        "brightness": 331.2,
        "daynight": "D"
      }
    },
    {
      "type": "Feature",
      "geometry": {
        "type": "Point",
        "coordinates": [
          116.7951,
          0.811
        ]
      },
      "properties": {
        "source": "VIIRS_SNPP_NRT",
        "satellite": "N",
        "acq_utc": "2026-10-03T06:05Z",
        "confidence": "n",
        "frp": 57.46,
        "brightness": 339.27,
        "daynight": "D"
      }
    },
    {
      "type": "Feature",
      "geometry": {
        "type": "Point",
        "coordinates": [
          114.653,
          -1.6209
        ]
      },
      "properties": {
        "source": "VIIRS_NOAA20_NRT",
        "satellite": "N20",
        "acq_utc": "2026-10-02T17:43Z",
        "confidence": "n",
        "frp": 51.32,
        "brightness": 310.0,
        "daynight": "N"
      }
    },
    {
      "type": "Feature",
      "geometry": {
        "type": "Point",
        "coordinates": [
          114.6493,
          -1.6203
        ]
      },
      "properties": {
        "source": "VIIRS_NOAA20_NRT",
        "satellite": "N20",
        "acq_utc": "2026-10-02T17:43Z",
        "confidence": "h",
        "frp": 51.32,
        "brightness": 367.0,
        "daynight": "N"
      }
    },
    {
      "type": "Feature",
      "geometry": {
        "type": "Point",
        "coordinates": [
          114.6535,
          -1.6175
        ]
      },
      "properties": {
        "source": "VIIRS_NOAA20_NRT",
        "satellite": "N20",
        "acq_utc": "2026-10-02T17:43Z",
        "confidence": "n",
        "frp": 51.32,
        "brightness": 309.24,
        "daynight": "N"
      }
    },
    {
      "type": "Feature",
      "geometry": {
        "type": "Point",
        "coordinates": [
          110.8418,
          -2.8612
        ]
      },
      "properties": {
        "source": "VIIRS_NOAA20_NRT",
        "satellite": "N20",
        "acq_utc": "2026-10-02T17:45Z",
        "confidence": "n",
        "frp": 55.18,
        "brightness": 339.83,
        "daynight": "N"
      }
    },
    {
      "type": "Feature",
      "geometry": {
        "type": "Point",
        "coordinates": [
          110.8381,
          -2.8606
        ]
      },
      "properties": {
        "source": "VIIRS_NOAA20_NRT",
        "satellite": "N20",
        "acq_utc": "2026-10-02T17:45Z",
        "confidence": "h",
        "frp": 55.18,
        "brightness": 367.0,
        "daynight": "N"
      }
    },
    {
      "type": "Feature",
      "geometry": {
        "type": "Point",
        "coordinates": [
          110.8424,
          -2.8571
        ]
      },
      "properties": {
        "source": "VIIRS_NOAA20_NRT",
        "satellite": "N20",
        "acq_utc": "2026-10-02T17:45Z",
        "confidence": "n",
        "frp": 55.18,
        "brightness": 340.86,
        "daynight": "N"
      }
    },
    {
      "type": "Feature",
      "geometry": {
        "type": "Point",
        "coordinates": [
          110.8388,
          -2.8565
        ]
      },
      "properties": {
        "source": "VIIRS_NOAA20_NRT",
        "satellite": "N20",
        "acq_utc": "2026-10-02T17:45Z",
        "confidence": "n",
        "frp": 55.18,
        "brightness": 347.19,
        "daynight": "N"
      }
    },
    {
      "type": "Feature",
      "geometry": {
        "type": "Point",
        "coordinates": [
          119.0422,
          -2.6602
        ]
      },
      "properties": {
        "source": "VIIRS_NOAA20_NRT",
        "satellite": "N20",
        "acq_utc": "2026-10-03T04:44Z",
        "confidence": "n",
        "frp": 53.99,
        "brightness": 349.13,
        "daynight": "D"
      }
    },
    {
      "type": "Feature",
      "geometry": {
        "type": "Point",
        "coordinates": [
          116.1383,
          -3.7688
        ]
      },
      "properties": {
        "source": "VIIRS_NOAA20_NRT",
        "satellite": "N20",
        "acq_utc": "2026-10-03T06:25Z",
        "confidence": "n",
        "frp": 95.57,
        "brightness": 343.48,
        "daynight": "D"
      }
    },
    {
      "type": "Feature",
      "geometry": {
        "type": "Point",
        "coordinates": [
          116.1447,
          -3.7677
        ]
      },
      "properties": {
        "source": "VIIRS_NOAA20_NRT",
        "satellite": "N20",
        "acq_utc": "2026-10-03T06:25Z",
        "confidence": "h",
        "frp": 55.95,
        "brightness": 367.0,
        "daynight": "D"
      }
    },
    {
      "type": "Feature",
      "geometry": {
        "type": "Point",
        "coordinates": [
          116.1479,
          -3.7672
        ]
      },
      "properties": {
        "source": "VIIRS_NOAA20_NRT",
        "satellite": "N20",
        "acq_utc": "2026-10-03T06:25Z",
        "confidence": "n",
        "frp": 55.95,
        "brightness": 340.23,
        "daynight": "D"
      }
    },
    {
      "type": "Feature",
      "geometry": {
        "type": "Point",
        "coordinates": [
          116.1438,
          -3.7625
        ]
      },
      "properties": {
        "source": "VIIRS_NOAA20_NRT",
        "satellite": "N20",
        "acq_utc": "2026-10-03T06:25Z",
        "confidence": "h",
        "frp": 55.95,
        "brightness": 367.0,
        "daynight": "D"
      }
    },
    {
      "type": "Feature",
      "geometry": {
        "type": "Point",
        "coordinates": [
          116.147,
          -3.762
        ]
      },
      "properties": {
        "source": "VIIRS_NOAA20_NRT",
        "satellite": "N20",
        "acq_utc": "2026-10-03T06:25Z",
        "confidence": "n",
        "frp": 55.95,
        "brightness": 339.75,
        "daynight": "D"
      }
    },
    {
      "type": "Feature",
      "geometry": {
        "type": "Point",
        "coordinates": [
          105.1413,
          -3.3915
        ]
      },
      "properties": {
        "source": "VIIRS_NOAA20_NRT",
        "satellite": "N20",
        "acq_utc": "2026-10-03T06:25Z",
        "confidence": "h",
        "frp": 446.22,
        "brightness": 367.0,
        "daynight": "D"
      }
    },
    {
      "type": "Feature",
      "geometry": {
        "type": "Point",
        "coordinates": [
          105.1414,
          -3.3909
        ]
      },
      "properties": {
        "source": "VIIRS_NOAA20_NRT",
        "satellite": "N20",
        "acq_utc": "2026-10-03T06:25Z",
        "confidence": "h",
        "frp": 356.94,
        "brightness": 367.0,
        "daynight": "D"
      }
    },
    {
      "type": "Feature",
      "geometry": {
        "type": "Point",
        "coordinates": [
          105.1488,
          -3.3898
        ]
      },
      "properties": {
        "source": "VIIRS_NOAA20_NRT",
        "satellite": "N20",
        "acq_utc": "2026-10-03T06:25Z",
        "confidence": "h",
        "frp": 57.83,
        "brightness": 367.0,
        "daynight": "D"
      }
    },
    {
      "type": "Feature",
      "geometry": {
        "type": "Point",
        "coordinates": [
          111.8531,
          -3.3366
        ]
      },
      "properties": {
        "source": "VIIRS_NOAA20_NRT",
        "satellite": "N20",
        "acq_utc": "2026-10-03T06:25Z",
        "confidence": "n",
        "frp": 50.73,
        "brightness": 346.84,
        "daynight": "D"
      }
    },
    {
      "type": "Feature",
      "geometry": {
        "type": "Point",
        "coordinates": [
          111.8581,
          -3.3358
        ]
      },
      "properties": {
        "source": "VIIRS_NOAA20_NRT",
        "satellite": "N20",
        "acq_utc": "2026-10-03T06:25Z",
        "confidence": "n",
        "frp": 50.73,
        "brightness": 344.75,
        "daynight": "D"
      }
    },
    {
      "type": "Feature",
      "geometry": {
        "type": "Point",
        "coordinates": [
          111.8543,
          -3.3329
        ]
      },
      "properties": {
        "source": "VIIRS_NOAA20_NRT",
        "satellite": "N20",
        "acq_utc": "2026-10-03T06:25Z",
        "confidence": "n",
        "frp": 115.77,
        "brightness": 355.72,
        "daynight": "D"
      }
    },
    {
      "type": "Feature",
      "geometry": {
        "type": "Point",
        "coordinates": [
          111.8525,
          -3.3327
        ]
      },
      "properties": {
        "source": "VIIRS_NOAA20_NRT",
        "satellite": "N20",
        "acq_utc": "2026-10-03T06:25Z",
        "confidence": "n",
        "frp": 50.73,
        "brightness": 346.43,
        "daynight": "D"
      }
    },
    {
      "type": "Feature",
      "geometry": {
        "type": "Point",
        "coordinates": [
          111.8594,
          -3.3321
        ]
      },
      "properties": {
        "source": "VIIRS_NOAA20_NRT",
        "satellite": "N20",
        "acq_utc": "2026-10-03T06:25Z",
        "confidence": "n",
        "frp": 115.77,
        "brightness": 337.97,
        "daynight": "D"
      }
    },
    {
      "type": "Feature",
      "geometry": {
        "type": "Point",
        "coordinates": [
          111.8519,
          -3.3287
        ]
      },
      "properties": {
        "source": "VIIRS_NOAA20_NRT",
        "satellite": "N20",
        "acq_utc": "2026-10-03T06:25Z",
        "confidence": "h",
        "frp": 352.97,
        "brightness": 367.0,
        "daynight": "D"
      }
    },
    {
      "type": "Feature",
      "geometry": {
        "type": "Point",
        "coordinates": [
          111.8588,
          -3.3281
        ]
      },
      "properties": {
        "source": "VIIRS_NOAA20_NRT",
        "satellite": "N20",
        "acq_utc": "2026-10-03T06:25Z",
        "confidence": "n",
        "frp": 115.77,
        "brightness": 340.24,
        "daynight": "D"
      }
    },
    {
      "type": "Feature",
      "geometry": {
        "type": "Point",
        "coordinates": [
          111.8496,
          -3.269
        ]
      },
      "properties": {
        "source": "VIIRS_NOAA20_NRT",
        "satellite": "N20",
        "acq_utc": "2026-10-03T06:25Z",
        "confidence": "n",
        "frp": 59.86,
        "brightness": 346.75,
        "daynight": "D"
      }
    },
    {
      "type": "Feature",
      "geometry": {
        "type": "Point",
        "coordinates": [
          111.844,
          -3.2659
        ]
      },
      "properties": {
        "source": "VIIRS_NOAA20_NRT",
        "satellite": "N20",
        "acq_utc": "2026-10-03T06:25Z",
        "confidence": "n",
        "frp": 59.86,
        "brightness": 336.77,
        "daynight": "D"
      }
    },
    {
      "type": "Feature",
      "geometry": {
        "type": "Point",
        "coordinates": [
          111.849,
          -3.2651
        ]
      },
      "properties": {
        "source": "VIIRS_NOAA20_NRT",
        "satellite": "N20",
        "acq_utc": "2026-10-03T06:25Z",
        "confidence": "n",
        "frp": 59.86,
        "brightness": 352.8,
        "daynight": "D"
      }
    },
    {
      "type": "Feature",
      "geometry": {
        "type": "Point",
        "coordinates": [
          112.2082,
          -3.1869
        ]
      },
      "properties": {
        "source": "VIIRS_NOAA20_NRT",
        "satellite": "N20",
        "acq_utc": "2026-10-03T06:25Z",
        "confidence": "n",
        "frp": 73.13,
        "brightness": 354.59,
        "daynight": "D"
      }
    },
    {
      "type": "Feature",
      "geometry": {
        "type": "Point",
        "coordinates": [
          112.2076,
          -3.1829
        ]
      },
      "properties": {
        "source": "VIIRS_NOAA20_NRT",
        "satellite": "N20",
        "acq_utc": "2026-10-03T06:25Z",
        "confidence": "n",
        "frp": 73.13,
        "brightness": 356.08,
        "daynight": "D"
      }
    },
    {
      "type": "Feature",
      "geometry": {
        "type": "Point",
        "coordinates": [
          105.4186,
          -3.1779
        ]
      },
      "properties": {
        "source": "VIIRS_NOAA20_NRT",
        "satellite": "N20",
        "acq_utc": "2026-10-03T06:25Z",
        "confidence": "h",
        "frp": 55.5,
        "brightness": 367.0,
        "daynight": "D"
      }
    },
    {
      "type": "Feature",
      "geometry": {
        "type": "Point",
        "coordinates": [
          105.4218,
          -3.1739
        ]
      },
      "properties": {
        "source": "VIIRS_NOAA20_NRT",
        "satellite": "N20",
        "acq_utc": "2026-10-03T06:25Z",
        "confidence": "h",
        "frp": 55.5,
        "brightness": 367.0,
        "daynight": "D"
      }
    },
    {
      "type": "Feature",
      "geometry": {
        "type": "Point",
        "coordinates": [
          112.3573,
          -3.1132
        ]
      },
      "properties": {
        "source": "VIIRS_NOAA20_NRT",
        "satellite": "N20",
        "acq_utc": "2026-10-03T06:25Z",
        "confidence": "n",
        "frp": 87.65,
        "brightness": 333.78,
        "daynight": "D"
      }
    },
    {
      "type": "Feature",
      "geometry": {
        "type": "Point",
        "coordinates": [
          111.5342,
          -2.9411
        ]
      },
      "properties": {
        "source": "VIIRS_NOAA20_NRT",
        "satellite": "N20",
        "acq_utc": "2026-10-03T06:25Z",
        "confidence": "n",
        "frp": 56.33,
        "brightness": 346.79,
        "daynight": "D"
      }
    },
    {
      "type": "Feature",
      "geometry": {
        "type": "Point",
        "coordinates": [
          112.7231,
          -2.9299
        ]
      },
      "properties": {
        "source": "VIIRS_NOAA20_NRT",
        "satellite": "N20",
        "acq_utc": "2026-10-03T06:25Z",
        "confidence": "n",
        "frp": 73.99,
        "brightness": 349.96,
        "daynight": "D"
      }
    },
    {
      "type": "Feature",
      "geometry": {
        "type": "Point",
        "coordinates": [
          112.7263,
          -2.9251
        ]
      },
      "properties": {
        "source": "VIIRS_NOAA20_NRT",
        "satellite": "N20",
        "acq_utc": "2026-10-03T06:25Z",
        "confidence": "n",
        "frp": 73.99,
        "brightness": 331.29,
        "daynight": "D"
      }
    },
    {
      "type": "Feature",
      "geometry": {
        "type": "Point",
        "coordinates": [
          111.6722,
          -2.8555
        ]
      },
      "properties": {
        "source": "VIIRS_NOAA20_NRT",
        "satellite": "N20",
        "acq_utc": "2026-10-03T06:25Z",
        "confidence": "n",
        "frp": 58.03,
        "brightness": 334.68,
        "daynight": "D"
      }
    },
    {
      "type": "Feature",
      "geometry": {
        "type": "Point",
        "coordinates": [
          111.6771,
          -2.8547
        ]
      },
      "properties": {
        "source": "VIIRS_NOAA20_NRT",
        "satellite": "N20",
        "acq_utc": "2026-10-03T06:25Z",
        "confidence": "n",
        "frp": 60.4,
        "brightness": 354.12,
        "daynight": "D"
      }
    },
    {
      "type": "Feature",
      "geometry": {
        "type": "Point",
        "coordinates": [
          111.6821,
          -2.8539
        ]
      },
      "properties": {
        "source": "VIIRS_NOAA20_NRT",
        "satellite": "N20",
        "acq_utc": "2026-10-03T06:25Z",
        "confidence": "n",
        "frp": 60.4,
        "brightness": 340.03,
        "daynight": "D"
      }
    },
    {
      "type": "Feature",
      "geometry": {
        "type": "Point",
        "coordinates": [
          111.6815,
          -2.85
        ]
      },
      "properties": {
        "source": "VIIRS_NOAA20_NRT",
        "satellite": "N20",
        "acq_utc": "2026-10-03T06:25Z",
        "confidence": "n",
        "frp": 60.4,
        "brightness": 330.85,
        "daynight": "D"
      }
    },
    {
      "type": "Feature",
      "geometry": {
        "type": "Point",
        "coordinates": [
          110.8347,
          -2.8493
        ]
      },
      "properties": {
        "source": "VIIRS_NOAA20_NRT",
        "satellite": "N20",
        "acq_utc": "2026-10-03T06:25Z",
        "confidence": "n",
        "frp": 59.16,
        "brightness": 354.21,
        "daynight": "D"
      }
    },
    {
      "type": "Feature",
      "geometry": {
        "type": "Point",
        "coordinates": [
          110.8315,
          -2.8482
        ]
      },
      "properties": {
        "source": "VIIRS_NOAA20_NRT",
        "satellite": "N20",
        "acq_utc": "2026-10-03T06:25Z",
        "confidence": "n",
        "frp": 74.92,
        "brightness": 356.12,
        "daynight": "D"
      }
    },
    {
      "type": "Feature",
      "geometry": {
        "type": "Point",
        "coordinates": [
          110.8359,
          -2.8475
        ]
      },
      "properties": {
        "source": "VIIRS_NOAA20_NRT",
        "satellite": "N20",
        "acq_utc": "2026-10-03T06:25Z",
        "confidence": "n",
        "frp": 74.92,
        "brightness": 354.71,
        "daynight": "D"
      }
    },
    {
      "type": "Feature",
      "geometry": {
        "type": "Point",
        "coordinates": [
          106.5471,
          -2.7357
        ]
      },
      "properties": {
        "source": "VIIRS_NOAA20_NRT",
        "satellite": "N20",
        "acq_utc": "2026-10-03T06:25Z",
        "confidence": "n",
        "frp": 76.27,
        "brightness": 339.02,
        "daynight": "D"
      }
    },
    {
      "type": "Feature",
      "geometry": {
        "type": "Point",
        "coordinates": [
          111.5862,
          -2.6683
        ]
      },
      "properties": {
        "source": "VIIRS_NOAA20_NRT",
        "satellite": "N20",
        "acq_utc": "2026-10-03T06:25Z",
        "confidence": "n",
        "frp": 115.51,
        "brightness": 348.05,
        "daynight": "D"
      }
    },
    {
      "type": "Feature",
      "geometry": {
        "type": "Point",
        "coordinates": [
          111.5807,
          -2.6652
        ]
      },
      "properties": {
        "source": "VIIRS_NOAA20_NRT",
        "satellite": "N20",
        "acq_utc": "2026-10-03T06:25Z",
        "confidence": "n",
        "frp": 115.51,
        "brightness": 355.47,
        "daynight": "D"
      }
    },
    {
      "type": "Feature",
      "geometry": {
        "type": "Point",
        "coordinates": [
          108.08,
          -2.6268
        ]
      },
      "properties": {
        "source": "VIIRS_NOAA20_NRT",
        "satellite": "N20",
        "acq_utc": "2026-10-03T06:25Z",
        "confidence": "n",
        "frp": 54.52,
        "brightness": 344.56,
        "daynight": "D"
      }
    },
    {
      "type": "Feature",
      "geometry": {
        "type": "Point",
        "coordinates": [
          110.8444,
          -2.5259
        ]
      },
      "properties": {
        "source": "VIIRS_NOAA20_NRT",
        "satellite": "N20",
        "acq_utc": "2026-10-03T06:25Z",
        "confidence": "n",
        "frp": 155.48,
        "brightness": 345.0,
        "daynight": "D"
      }
    },
    {
      "type": "Feature",
      "geometry": {
        "type": "Point",
        "coordinates": [
          113.7246,
          -2.1123
        ]
      },
      "properties": {
        "source": "VIIRS_NOAA20_NRT",
        "satellite": "N20",
        "acq_utc": "2026-10-03T06:25Z",
        "confidence": "n",
        "frp": 51.02,
        "brightness": 351.93,
        "daynight": "D"
      }
    },
    {
      "type": "Feature",
      "geometry": {
        "type": "Point",
        "coordinates": [
          113.7239,
          -2.1078
        ]
      },
      "properties": {
        "source": "VIIRS_NOAA20_NRT",
        "satellite": "N20",
        "acq_utc": "2026-10-03T06:25Z",
        "confidence": "n",
        "frp": 51.02,
        "brightness": 353.28,
        "daynight": "D"
      }
    },
    {
      "type": "Feature",
      "geometry": {
        "type": "Point",
        "coordinates": [
          111.0168,
          -1.2399
        ]
      },
      "properties": {
        "source": "VIIRS_NOAA20_NRT",
        "satellite": "N20",
        "acq_utc": "2026-10-03T06:25Z",
        "confidence": "n",
        "frp": 70.59,
        "brightness": 334.42,
        "daynight": "D"
      }
    },
    {
      "type": "Feature",
      "geometry": {
        "type": "Point",
        "coordinates": [
          113.4905,
          -1.1913
        ]
      },
      "properties": {
        "source": "VIIRS_NOAA20_NRT",
        "satellite": "N20",
        "acq_utc": "2026-10-03T06:25Z",
        "confidence": "n",
        "frp": 78.12,
        "brightness": 342.01,
        "daynight": "D"
      }
    },
    {
      "type": "Feature",
      "geometry": {
        "type": "Point",
        "coordinates": [
          110.8126,
          -1.1243
        ]
      },
      "properties": {
        "source": "VIIRS_NOAA20_NRT",
        "satellite": "N20",
        "acq_utc": "2026-10-03T06:25Z",
        "confidence": "n",
        "frp": 144.42,
        "brightness": 330.6,
        "daynight": "D"
      }
    },
    {
      "type": "Feature",
      "geometry": {
        "type": "Point",
        "coordinates": [
          110.6862,
          -1.059
        ]
      },
      "properties": {
        "source": "VIIRS_NOAA20_NRT",
        "satellite": "N20",
        "acq_utc": "2026-10-03T06:25Z",
        "confidence": "h",
        "frp": 198.84,
        "brightness": 367.0,
        "daynight": "D"
      }
    },
    {
      "type": "Feature",
      "geometry": {
        "type": "Point",
        "coordinates": [
          110.6856,
          -1.0552
        ]
      },
      "properties": {
        "source": "VIIRS_NOAA20_NRT",
        "satellite": "N20",
        "acq_utc": "2026-10-03T06:25Z",
        "confidence": "n",
        "frp": 198.84,
        "brightness": 331.44,
        "daynight": "D"
      }
    },
    {
      "type": "Feature",
      "geometry": {
        "type": "Point",
        "coordinates": [
          110.4444,
          -0.9845
        ]
      },
      "properties": {
        "source": "VIIRS_NOAA20_NRT",
        "satellite": "N20",
        "acq_utc": "2026-10-03T06:27Z",
        "confidence": "n",
        "frp": 53.19,
        "brightness": 338.14,
        "daynight": "D"
      }
    },
    {
      "type": "Feature",
      "geometry": {
        "type": "Point",
        "coordinates": [
          110.746,
          -0.9763
        ]
      },
      "properties": {
        "source": "VIIRS_NOAA20_NRT",
        "satellite": "N20",
        "acq_utc": "2026-10-03T06:27Z",
        "confidence": "n",
        "frp": 56.69,
        "brightness": 346.89,
        "daynight": "D"
      }
    },
    {
      "type": "Feature",
      "geometry": {
        "type": "Point",
        "coordinates": [
          110.5142,
          -0.8881
        ]
      },
      "properties": {
        "source": "VIIRS_NOAA20_NRT",
        "satellite": "N20",
        "acq_utc": "2026-10-03T06:27Z",
        "confidence": "n",
        "frp": 191.23,
        "brightness": 341.01,
        "daynight": "D"
      }
    },
    {
      "type": "Feature",
      "geometry": {
        "type": "Point",
        "coordinates": [
          110.5136,
          -0.8843
        ]
      },
      "properties": {
        "source": "VIIRS_NOAA20_NRT",
        "satellite": "N20",
        "acq_utc": "2026-10-03T06:27Z",
        "confidence": "n",
        "frp": 53.68,
        "brightness": 339.73,
        "daynight": "D"
      }
    },
    {
      "type": "Feature",
      "geometry": {
        "type": "Point",
        "coordinates": [
          110.8491,
          -0.852
        ]
      },
      "properties": {
        "source": "VIIRS_NOAA20_NRT",
        "satellite": "N20",
        "acq_utc": "2026-10-03T06:27Z",
        "confidence": "n",
        "frp": 170.28,
        "brightness": 333.78,
        "daynight": "D"
      }
    },
    {
      "type": "Feature",
      "geometry": {
        "type": "Point",
        "coordinates": [
          111.4547,
          -0.8469
        ]
      },
      "properties": {
        "source": "VIIRS_NOAA20_NRT",
        "satellite": "N20",
        "acq_utc": "2026-10-03T06:27Z",
        "confidence": "n",
        "frp": 68.15,
        "brightness": 347.5,
        "daynight": "D"
      }
    },
    {
      "type": "Feature",
      "geometry": {
        "type": "Point",
        "coordinates": [
          110.3919,
          -0.8063
        ]
      },
      "properties": {
        "source": "VIIRS_NOAA20_NRT",
        "satellite": "N20",
        "acq_utc": "2026-10-03T06:27Z",
        "confidence": "n",
        "frp": 75.46,
        "brightness": 349.67,
        "daynight": "D"
      }
    },
    {
      "type": "Feature",
      "geometry": {
        "type": "Point",
        "coordinates": [
          110.3508,
          -0.805
        ]
      },
      "properties": {
        "source": "VIIRS_NOAA20_NRT",
        "satellite": "N20",
        "acq_utc": "2026-10-03T06:27Z",
        "confidence": "n",
        "frp": 53.18,
        "brightness": 344.81,
        "daynight": "D"
      }
    },
    {
      "type": "Feature",
      "geometry": {
        "type": "Point",
        "coordinates": [
          110.3502,
          -0.8013
        ]
      },
      "properties": {
        "source": "VIIRS_NOAA20_NRT",
        "satellite": "N20",
        "acq_utc": "2026-10-03T06:27Z",
        "confidence": "n",
        "frp": 90.57,
        "brightness": 342.82,
        "daynight": "D"
      }
    },
    {
      "type": "Feature",
      "geometry": {
        "type": "Point",
        "coordinates": [
          110.3497,
          -0.7975
        ]
      },
      "properties": {
        "source": "VIIRS_NOAA20_NRT",
        "satellite": "N20",
        "acq_utc": "2026-10-03T06:27Z",
        "confidence": "n",
        "frp": 90.57,
        "brightness": 335.98,
        "daynight": "D"
      }
    },
    {
      "type": "Feature",
      "geometry": {
        "type": "Point",
        "coordinates": [
          103.6486,
          -0.3537
        ]
      },
      "properties": {
        "source": "VIIRS_NOAA20_NRT",
        "satellite": "N20",
        "acq_utc": "2026-10-03T06:27Z",
        "confidence": "h",
        "frp": 59.82,
        "brightness": 367.0,
        "daynight": "D"
      }
    },
    {
      "type": "Feature",
      "geometry": {
        "type": "Point",
        "coordinates": [
          114.3728,
          -0.2734
        ]
      },
      "properties": {
        "source": "VIIRS_NOAA20_NRT",
        "satellite": "N20",
        "acq_utc": "2026-10-03T06:27Z",
        "confidence": "n",
        "frp": 70.58,
        "brightness": 346.81,
        "daynight": "D"
      }
    },
    {
      "type": "Feature",
      "geometry": {
        "type": "Point",
        "coordinates": [
          116.8347,
          0.2333
        ]
      },
      "properties": {
        "source": "VIIRS_NOAA20_NRT",
        "satellite": "N20",
        "acq_utc": "2026-10-03T06:27Z",
        "confidence": "n",
        "frp": 50.62,
        "brightness": 349.93,
        "daynight": "D"
      }
    },
    {
      "type": "Feature",
      "geometry": {
        "type": "Point",
        "coordinates": [
          116.8388,
          0.2339
        ]
      },
      "properties": {
        "source": "VIIRS_NOAA20_NRT",
        "satellite": "N20",
        "acq_utc": "2026-10-03T06:27Z",
        "confidence": "n",
        "frp": 50.62,
        "brightness": 355.77,
        "daynight": "D"
      }
    },
    {
      "type": "Feature",
      "geometry": {
        "type": "Point",
        "coordinates": [
          103.2391,
          0.6939
        ]
      },
      "properties": {
        "source": "VIIRS_NOAA20_NRT",
        "satellite": "N20",
        "acq_utc": "2026-10-03T06:27Z",
        "confidence": "h",
        "frp": 55.88,
        "brightness": 367.0,
        "daynight": "D"
      }
    },
    {
      "type": "Feature",
      "geometry": {
        "type": "Point",
        "coordinates": [
          116.8341,
          -0.0214
        ]
      },
      "properties": {
        "source": "MODIS_NRT",
        "satellite": "Aqua",
        "acq_utc": "2026-10-02T20:32Z",
        "confidence": "63",
        "frp": 54.3,
        "brightness": 305.3,
        "daynight": "N"
      }
    },
    {
      "type": "Feature",
      "geometry": {
        "type": "Point",
        "coordinates": [
          105.5726,
          -3.7675
        ]
      },
      "properties": {
        "source": "MODIS_NRT",
        "satellite": "Aqua",
        "acq_utc": "2026-10-02T20:34Z",
        "confidence": "100",
        "frp": 65.49,
        "brightness": 351.38,
        "daynight": "N"
      }
    },
    {
      "type": "Feature",
      "geometry": {
        "type": "Point",
        "coordinates": [
          105.5739,
          -3.7586
        ]
      },
      "properties": {
        "source": "MODIS_NRT",
        "satellite": "Aqua",
        "acq_utc": "2026-10-02T20:34Z",
        "confidence": "100",
        "frp": 56.29,
        "brightness": 346.79,
        "daynight": "N"
      }
    },
    {
      "type": "Feature",
      "geometry": {
        "type": "Point",
        "coordinates": [
          105.5649,
          -3.7572
        ]
      },
      "properties": {
        "source": "MODIS_NRT",
        "satellite": "Aqua",
        "acq_utc": "2026-10-02T20:34Z",
        "confidence": "100",
        "frp": 62.72,
        "brightness": 349.99,
        "daynight": "N"
      }
    },
    {
      "type": "Feature",
      "geometry": {
        "type": "Point",
        "coordinates": [
          105.119,
          -3.4197
        ]
      },
      "properties": {
        "source": "MODIS_NRT",
        "satellite": "Aqua",
        "acq_utc": "2026-10-02T20:34Z",
        "confidence": "100",
        "frp": 75.28,
        "brightness": 353.28,
        "daynight": "N"
      }
    },
    {
      "type": "Feature",
      "geometry": {
        "type": "Point",
        "coordinates": [
          105.1096,
          -3.4183
        ]
      },
      "properties": {
        "source": "MODIS_NRT",
        "satellite": "Aqua",
        "acq_utc": "2026-10-02T20:34Z",
        "confidence": "100",
        "frp": 50.56,
        "brightness": 341.99,
        "daynight": "N"
      }
    },
    {
      "type": "Feature",
      "geometry": {
        "type": "Point",
        "coordinates": [
          105.1586,
          -3.3894
        ]
      },
      "properties": {
        "source": "MODIS_NRT",
        "satellite": "Aqua",
        "acq_utc": "2026-10-02T20:34Z",
        "confidence": "100",
        "frp": 92.14,
        "brightness": 359.73,
        "daynight": "N"
      }
    },
    {
      "type": "Feature",
      "geometry": {
        "type": "Point",
        "coordinates": [
          105.1493,
          -3.388
        ]
      },
      "properties": {
        "source": "MODIS_NRT",
        "satellite": "Aqua",
        "acq_utc": "2026-10-02T20:34Z",
        "confidence": "100",
        "frp": 197.03,
        "brightness": 386.17,
        "daynight": "N"
      }
    },
    {
      "type": "Feature",
      "geometry": {
        "type": "Point",
        "coordinates": [
          105.2502,
          -3.348
        ]
      },
      "properties": {
        "source": "MODIS_NRT",
        "satellite": "Aqua",
        "acq_utc": "2026-10-02T20:34Z",
        "confidence": "100",
        "frp": 55.73,
        "brightness": 344.63,
        "daynight": "N"
      }
    },
    {
      "type": "Feature",
      "geometry": {
        "type": "Point",
        "coordinates": [
          105.2409,
          -3.3466
        ]
      },
      "properties": {
        "source": "MODIS_NRT",
        "satellite": "Aqua",
        "acq_utc": "2026-10-02T20:34Z",
        "confidence": "100",
        "frp": 67.13,
        "brightness": 349.71,
        "daynight": "N"
      }
    },
    {
      "type": "Feature",
      "geometry": {
        "type": "Point",
        "coordinates": [
          105.104,
          -3.307
        ]
      },
      "properties": {
        "source": "MODIS_NRT",
        "satellite": "Aqua",
        "acq_utc": "2026-10-02T20:34Z",
        "confidence": "100",
        "frp": 78.03,
        "brightness": 353.93,
        "daynight": "N"
      }
    },
    {
      "type": "Feature",
      "geometry": {
        "type": "Point",
        "coordinates": [
          105.0947,
          -3.3056
        ]
      },
      "properties": {
        "source": "MODIS_NRT",
        "satellite": "Aqua",
        "acq_utc": "2026-10-02T20:34Z",
        "confidence": "100",
        "frp": 103.21,
        "brightness": 362.65,
        "daynight": "N"
      }
    },
    {
      "type": "Feature",
      "geometry": {
        "type": "Point",
        "coordinates": [
          105.4194,
          -3.1798
        ]
      },
      "properties": {
        "source": "MODIS_NRT",
        "satellite": "Aqua",
        "acq_utc": "2026-10-02T20:34Z",
        "confidence": "100",
        "frp": 54.89,
        "brightness": 344.71,
        "daynight": "N"
      }
    },
    {
      "type": "Feature",
      "geometry": {
        "type": "Point",
        "coordinates": [
          105.3835,
          -3.1454
        ]
      },
      "properties": {
        "source": "MODIS_NRT",
        "satellite": "Aqua",
        "acq_utc": "2026-10-02T20:34Z",
        "confidence": "100",
        "frp": 50.09,
        "brightness": 342.1,
        "daynight": "N"
      }
    },
    {
      "type": "Feature",
      "geometry": {
        "type": "Point",
        "coordinates": [
          105.3849,
          -3.1364
        ]
      },
      "properties": {
        "source": "MODIS_NRT",
        "satellite": "Aqua",
        "acq_utc": "2026-10-02T20:34Z",
        "confidence": "100",
        "frp": 60.5,
        "brightness": 347.28,
        "daynight": "N"
      }
    },
    {
      "type": "Feature",
      "geometry": {
        "type": "Point",
        "coordinates": [
          110.7096,
          -2.8928
        ]
      },
      "properties": {
        "source": "MODIS_NRT",
        "satellite": "Aqua",
        "acq_utc": "2026-10-02T20:34Z",
        "confidence": "100",
        "frp": 63.86,
        "brightness": 337.8,
        "daynight": "N"
      }
    },
    {
      "type": "Feature",
      "geometry": {
        "type": "Point",
        "coordinates": [
          112.1775,
          -2.6954
        ]
      },
      "properties": {
        "source": "MODIS_NRT",
        "satellite": "Aqua",
        "acq_utc": "2026-10-02T20:34Z",
        "confidence": "100",
        "frp": 54.3,
        "brightness": 324.55,
        "daynight": "N"
      }
    },
    {
      "type": "Feature",
      "geometry": {
        "type": "Point",
        "coordinates": [
          114.2601,
          -2.4933
        ]
      },
      "properties": {
        "source": "MODIS_NRT",
        "satellite": "Aqua",
        "acq_utc": "2026-10-02T20:34Z",
        "confidence": "94",
        "frp": 61.01,
        "brightness": 317.15,
        "daynight": "N"
      }
    },
    {
      "type": "Feature",
      "geometry": {
        "type": "Point",
        "coordinates": [
          114.5641,
          -2.3543
        ]
      },
      "properties": {
        "source": "MODIS_NRT",
        "satellite": "Aqua",
        "acq_utc": "2026-10-02T20:34Z",
        "confidence": "100",
        "frp": 100.46,
        "brightness": 324.48,
        "daynight": "N"
      }
    },
    {
      "type": "Feature",
      "geometry": {
        "type": "Point",
        "coordinates": [
          114.0526,
          -2.3293
        ]
      },
      "properties": {
        "source": "MODIS_NRT",
        "satellite": "Aqua",
        "acq_utc": "2026-10-02T20:34Z",
        "confidence": "92",
        "frp": 51.01,
        "brightness": 315.7,
        "daynight": "N"
      }
    },
    {
      "type": "Feature",
      "geometry": {
        "type": "Point",
        "coordinates": [
          114.1999,
          -2.3292
        ]
      },
      "properties": {
        "source": "MODIS_NRT",
        "satellite": "Aqua",
        "acq_utc": "2026-10-02T20:34Z",
        "confidence": "92",
        "frp": 53.63,
        "brightness": 316.01,
        "daynight": "N"
      }
    },
    {
      "type": "Feature",
      "geometry": {
        "type": "Point",
        "coordinates": [
          111.8525,
          -3.3406
        ]
      },
      "properties": {
        "source": "MODIS_NRT",
        "satellite": "Terra",
        "acq_utc": "2026-10-03T00:50Z",
        "confidence": "87",
        "frp": 64.71,
        "brightness": 336.37,
        "daynight": "D"
      }
    },
    {
      "type": "Feature",
      "geometry": {
        "type": "Point",
        "coordinates": [
          111.8492,
          -3.2609
        ]
      },
      "properties": {
        "source": "MODIS_NRT",
        "satellite": "Terra",
        "acq_utc": "2026-10-03T00:50Z",
        "confidence": "91",
        "frp": 84.42,
        "brightness": 342.21,
        "daynight": "D"
      }
    },
    {
      "type": "Feature",
      "geometry": {
        "type": "Point",
        "coordinates": [
          115.4291,
          -2.9289
        ]
      },
      "properties": {
        "source": "MODIS_NRT",
        "satellite": "Terra",
        "acq_utc": "2026-10-03T00:50Z",
        "confidence": "95",
        "frp": 57.44,
        "brightness": 348.18,
        "daynight": "D"
      }
    },
    {
      "type": "Feature",
      "geometry": {
        "type": "Point",
        "coordinates": [
          115.4198,
          -2.9276
        ]
      },
      "properties": {
        "source": "MODIS_NRT",
        "satellite": "Terra",
        "acq_utc": "2026-10-03T00:50Z",
        "confidence": "99",
        "frp": 83.98,
        "brightness": 358.98,
        "daynight": "D"
      }
    },
    {
      "type": "Feature",
      "geometry": {
        "type": "Point",
        "coordinates": [
          111.6836,
          -2.8566
        ]
      },
      "properties": {
        "source": "MODIS_NRT",
        "satellite": "Terra",
        "acq_utc": "2026-10-03T00:50Z",
        "confidence": "71",
        "frp": 200.65,
        "brightness": 363.61,
        "daynight": "D"
      }
    },
    {
      "type": "Feature",
      "geometry": {
        "type": "Point",
        "coordinates": [
          114.2626,
          -2.5012
        ]
      },
      "properties": {
        "source": "MODIS_NRT",
        "satellite": "Terra",
        "acq_utc": "2026-10-03T00:50Z",
        "confidence": "99",
        "frp": 98.67,
        "brightness": 359.52,
        "daynight": "D"
      }
    },
    {
      "type": "Feature",
      "geometry": {
        "type": "Point",
        "coordinates": [
          114.2039,
          -2.3371
        ]
      },
      "properties": {
        "source": "MODIS_NRT",
        "satellite": "Terra",
        "acq_utc": "2026-10-03T00:50Z",
        "confidence": "82",
        "frp": 64.33,
        "brightness": 348.5,
        "daynight": "D"
      }
    },
    {
      "type": "Feature",
      "geometry": {
        "type": "Point",
        "coordinates": [
          114.0449,
          -2.3337
        ]
      },
      "properties": {
        "source": "MODIS_NRT",
        "satellite": "Terra",
        "acq_utc": "2026-10-03T00:50Z",
        "confidence": "96",
        "frp": 73.83,
        "brightness": 350.87,
        "daynight": "D"
      }
    },
    {
      "type": "Feature",
      "geometry": {
        "type": "Point",
        "coordinates": [
          119.692,
          -2.3293
        ]
      },
      "properties": {
        "source": "MODIS_NRT",
        "satellite": "Terra",
        "acq_utc": "2026-10-03T00:50Z",
        "confidence": "94",
        "frp": 70.16,
        "brightness": 344.99,
        "daynight": "D"
      }
    },
    {
      "type": "Feature",
      "geometry": {
        "type": "Point",
        "coordinates": [
          111.4897,
          -2.2656
        ]
      },
      "properties": {
        "source": "MODIS_NRT",
        "satellite": "Terra",
        "acq_utc": "2026-10-03T00:50Z",
        "confidence": "83",
        "frp": 51.37,
        "brightness": 328.94,
        "daynight": "D"
      }
    },
    {
      "type": "Feature",
      "geometry": {
        "type": "Point",
        "coordinates": [
          105.226,
          -4.183
        ]
      },
      "properties": {
        "source": "MODIS_NRT",
        "satellite": "Aqua",
        "acq_utc": "2026-10-03T08:52Z",
        "confidence": "100",
        "frp": 151.6,
        "brightness": 377.88,
        "daynight": "D"
      }
    },
    {
      "type": "Feature",
      "geometry": {
        "type": "Point",
        "coordinates": [
          105.5704,
          -3.7708
        ]
      },
      "properties": {
        "source": "MODIS_NRT",
        "satellite": "Aqua",
        "acq_utc": "2026-10-03T08:52Z",
        "confidence": "98",
        "frp": 76.17,
        "brightness": 355.69,
        "daynight": "D"
      }
    },
    {
      "type": "Feature",
      "geometry": {
        "type": "Point",
        "coordinates": [
          105.5592,
          -3.7631
        ]
      },
      "properties": {
        "source": "MODIS_NRT",
        "satellite": "Aqua",
        "acq_utc": "2026-10-03T08:52Z",
        "confidence": "94",
        "frp": 51.46,
        "brightness": 346.72,
        "daynight": "D"
      }
    },
    {
      "type": "Feature",
      "geometry": {
        "type": "Point",
        "coordinates": [
          105.569,
          -3.7616
        ]
      },
      "properties": {
        "source": "MODIS_NRT",
        "satellite": "Aqua",
        "acq_utc": "2026-10-03T08:52Z",
        "confidence": "100",
        "frp": 146.6,
        "brightness": 375.06,
        "daynight": "D"
      }
    },
    {
      "type": "Feature",
      "geometry": {
        "type": "Point",
        "coordinates": [
          105.7269,
          -3.6446
        ]
      },
      "properties": {
        "source": "MODIS_NRT",
        "satellite": "Aqua",
        "acq_utc": "2026-10-03T08:52Z",
        "confidence": "93",
        "frp": 56.3,
        "brightness": 346.05,
        "daynight": "D"
      }
    },
    {
      "type": "Feature",
      "geometry": {
        "type": "Point",
        "coordinates": [
          105.7369,
          -3.6431
        ]
      },
      "properties": {
        "source": "MODIS_NRT",
        "satellite": "Aqua",
        "acq_utc": "2026-10-03T08:52Z",
        "confidence": "97",
        "frp": 76.57,
        "brightness": 353.76,
        "daynight": "D"
      }
    },
    {
      "type": "Feature",
      "geometry": {
        "type": "Point",
        "coordinates": [
          105.6974,
          -3.531
        ]
      },
      "properties": {
        "source": "MODIS_NRT",
        "satellite": "Aqua",
        "acq_utc": "2026-10-03T08:52Z",
        "confidence": "100",
        "frp": 165.54,
        "brightness": 377.69,
        "daynight": "D"
      }
    },
    {
      "type": "Feature",
      "geometry": {
        "type": "Point",
        "coordinates": [
          105.7074,
          -3.5295
        ]
      },
      "properties": {
        "source": "MODIS_NRT",
        "satellite": "Aqua",
        "acq_utc": "2026-10-03T08:52Z",
        "confidence": "100",
        "frp": 109.91,
        "brightness": 364.35,
        "daynight": "D"
      }
    },
    {
      "type": "Feature",
      "geometry": {
        "type": "Point",
        "coordinates": [
          105.2392,
          -3.4415
        ]
      },
      "properties": {
        "source": "MODIS_NRT",
        "satellite": "Aqua",
        "acq_utc": "2026-10-03T08:52Z",
        "confidence": "96",
        "frp": 67.98,
        "brightness": 352.06,
        "daynight": "D"
      }
    },
    {
      "type": "Feature",
      "geometry": {
        "type": "Point",
        "coordinates": [
          105.1054,
          -3.4334
        ]
      },
      "properties": {
        "source": "MODIS_NRT",
        "satellite": "Aqua",
        "acq_utc": "2026-10-03T08:52Z",
        "confidence": "88",
        "frp": 66.51,
        "brightness": 353.16,
        "daynight": "D"
      }
    },
    {
      "type": "Feature",
      "geometry": {
        "type": "Point",
        "coordinates": [
          105.139,
          -3.4006
        ]
      },
      "properties": {
        "source": "MODIS_NRT",
        "satellite": "Aqua",
        "acq_utc": "2026-10-03T08:52Z",
        "confidence": "100",
        "frp": 125.11,
        "brightness": 371.51,
        "daynight": "D"
      }
    },
    {
      "type": "Feature",
      "geometry": {
        "type": "Point",
        "coordinates": [
          105.1675,
          -3.3963
        ]
      },
      "properties": {
        "source": "MODIS_NRT",
        "satellite": "Aqua",
        "acq_utc": "2026-10-03T08:52Z",
        "confidence": "97",
        "frp": 71.4,
        "brightness": 354.12,
        "daynight": "D"
      }
    },
    {
      "type": "Feature",
      "geometry": {
        "type": "Point",
        "coordinates": [
          105.1566,
          -3.3887
        ]
      },
      "properties": {
        "source": "MODIS_NRT",
        "satellite": "Aqua",
        "acq_utc": "2026-10-03T08:52Z",
        "confidence": "100",
        "frp": 156.34,
        "brightness": 378.24,
        "daynight": "D"
      }
    },
    {
      "type": "Feature",
      "geometry": {
        "type": "Point",
        "coordinates": [
          105.1661,
          -3.3872
        ]
      },
      "properties": {
        "source": "MODIS_NRT",
        "satellite": "Aqua",
        "acq_utc": "2026-10-03T08:52Z",
        "confidence": "100",
        "frp": 94.89,
        "brightness": 362.0,
        "daynight": "D"
      }
    },
    {
      "type": "Feature",
      "geometry": {
        "type": "Point",
        "coordinates": [
          105.2395,
          -3.3576
        ]
      },
      "properties": {
        "source": "MODIS_NRT",
        "satellite": "Aqua",
        "acq_utc": "2026-10-03T08:52Z",
        "confidence": "100",
        "frp": 227.4,
        "brightness": 391.38,
        "daynight": "D"
      }
    },
    {
      "type": "Feature",
      "geometry": {
        "type": "Point",
        "coordinates": [
          105.2381,
          -3.3485
        ]
      },
      "properties": {
        "source": "MODIS_NRT",
        "satellite": "Aqua",
        "acq_utc": "2026-10-03T08:52Z",
        "confidence": "93",
        "frp": 51.51,
        "brightness": 344.98,
        "daynight": "D"
      }
    },
    {
      "type": "Feature",
      "geometry": {
        "type": "Point",
        "coordinates": [
          105.5207,
          -3.3155
        ]
      },
      "properties": {
        "source": "MODIS_NRT",
        "satellite": "Aqua",
        "acq_utc": "2026-10-03T08:52Z",
        "confidence": "92",
        "frp": 50.6,
        "brightness": 343.82,
        "daynight": "D"
      }
    },
    {
      "type": "Feature",
      "geometry": {
        "type": "Point",
        "coordinates": [
          105.2464,
          -3.3116
        ]
      },
      "properties": {
        "source": "MODIS_NRT",
        "satellite": "Aqua",
        "acq_utc": "2026-10-03T08:52Z",
        "confidence": "95",
        "frp": 63.54,
        "brightness": 350.14,
        "daynight": "D"
      }
    },
    {
      "type": "Feature",
      "geometry": {
        "type": "Point",
        "coordinates": [
          105.4996,
          -3.3091
        ]
      },
      "properties": {
        "source": "MODIS_NRT",
        "satellite": "Aqua",
        "acq_utc": "2026-10-03T08:52Z",
        "confidence": "95",
        "frp": 61.59,
        "brightness": 348.39,
        "daynight": "D"
      }
    },
    {
      "type": "Feature",
      "geometry": {
        "type": "Point",
        "coordinates": [
          105.5094,
          -3.3077
        ]
      },
      "properties": {
        "source": "MODIS_NRT",
        "satellite": "Aqua",
        "acq_utc": "2026-10-03T08:52Z",
        "confidence": "95",
        "frp": 62.62,
        "brightness": 349.12,
        "daynight": "D"
      }
    },
    {
      "type": "Feature",
      "geometry": {
        "type": "Point",
        "coordinates": [
          105.245,
          -3.3025
        ]
      },
      "properties": {
        "source": "MODIS_NRT",
        "satellite": "Aqua",
        "acq_utc": "2026-10-03T08:52Z",
        "confidence": "99",
        "frp": 85.15,
        "brightness": 358.02,
        "daynight": "D"
      }
    },
    {
      "type": "Feature",
      "geometry": {
        "type": "Point",
        "coordinates": [
          105.5488,
          -3.3017
        ]
      },
      "properties": {
        "source": "MODIS_NRT",
        "satellite": "Aqua",
        "acq_utc": "2026-10-03T08:52Z",
        "confidence": "99",
        "frp": 88.62,
        "brightness": 357.97,
        "daynight": "D"
      }
    },
    {
      "type": "Feature",
      "geometry": {
        "type": "Point",
        "coordinates": [
          112.1523,
          -3.2683
        ]
      },
      "properties": {
        "source": "MODIS_NRT",
        "satellite": "Aqua",
        "acq_utc": "2026-10-03T08:52Z",
        "confidence": "67",
        "frp": 88.86,
        "brightness": 322.41,
        "daynight": "D"
      }
    },
    {
      "type": "Feature",
      "geometry": {
        "type": "Point",
        "coordinates": [
          105.6147,
          -3.2382
        ]
      },
      "properties": {
        "source": "MODIS_NRT",
        "satellite": "Aqua",
        "acq_utc": "2026-10-03T08:52Z",
        "confidence": "94",
        "frp": 59.59,
        "brightness": 347.55,
        "daynight": "D"
      }
    },
    {
      "type": "Feature",
      "geometry": {
        "type": "Point",
        "coordinates": [
          105.6133,
          -3.2289
        ]
      },
      "properties": {
        "source": "MODIS_NRT",
        "satellite": "Aqua",
        "acq_utc": "2026-10-03T08:52Z",
        "confidence": "100",
        "frp": 329.42,
        "brightness": 404.06,
        "daynight": "D"
      }
    },
    {
      "type": "Feature",
      "geometry": {
        "type": "Point",
        "coordinates": [
          105.6233,
          -3.2274
        ]
      },
      "properties": {
        "source": "MODIS_NRT",
        "satellite": "Aqua",
        "acq_utc": "2026-10-03T08:52Z",
        "confidence": "100",
        "frp": 117.1,
        "brightness": 366.6,
        "daynight": "D"
      }
    },
    {
      "type": "Feature",
      "geometry": {
        "type": "Point",
        "coordinates": [
          105.6119,
          -3.2195
        ]
      },
      "properties": {
        "source": "MODIS_NRT",
        "satellite": "Aqua",
        "acq_utc": "2026-10-03T08:52Z",
        "confidence": "93",
        "frp": 56.89,
        "brightness": 345.16,
        "daynight": "D"
      }
    },
    {
      "type": "Feature",
      "geometry": {
        "type": "Point",
        "coordinates": [
          105.4182,
          -3.1838
        ]
      },
      "properties": {
        "source": "MODIS_NRT",
        "satellite": "Aqua",
        "acq_utc": "2026-10-03T08:52Z",
        "confidence": "100",
        "frp": 125.18,
        "brightness": 368.56,
        "daynight": "D"
      }
    },
    {
      "type": "Feature",
      "geometry": {
        "type": "Point",
        "coordinates": [
          105.428,
          -3.1823
        ]
      },
      "properties": {
        "source": "MODIS_NRT",
        "satellite": "Aqua",
        "acq_utc": "2026-10-03T08:52Z",
        "confidence": "98",
        "frp": 80.82,
        "brightness": 355.28,
        "daynight": "D"
      }
    },
    {
      "type": "Feature",
      "geometry": {
        "type": "Point",
        "coordinates": [
          105.4266,
          -3.1731
        ]
      },
      "properties": {
        "source": "MODIS_NRT",
        "satellite": "Aqua",
        "acq_utc": "2026-10-03T08:52Z",
        "confidence": "97",
        "frp": 78.04,
        "brightness": 354.21,
        "daynight": "D"
      }
    },
    {
      "type": "Feature",
      "geometry": {
        "type": "Point",
        "coordinates": [
          104.1668,
          -3.0289
        ]
      },
      "properties": {
        "source": "MODIS_NRT",
        "satellite": "Aqua",
        "acq_utc": "2026-10-03T08:52Z",
        "confidence": "74",
        "frp": 71.52,
        "brightness": 356.52,
        "daynight": "D"
      }
    },
    {
      "type": "Feature",
      "geometry": {
        "type": "Point",
        "coordinates": [
          105.2159,
          -2.9727
        ]
      },
      "properties": {
        "source": "MODIS_NRT",
        "satellite": "Aqua",
        "acq_utc": "2026-10-03T08:52Z",
        "confidence": "94",
        "frp": 52.91,
        "brightness": 346.69,
        "daynight": "D"
      }
    },
    {
      "type": "Feature",
      "geometry": {
        "type": "Point",
        "coordinates": [
          106.8202,
          -2.9135
        ]
      },
      "properties": {
        "source": "MODIS_NRT",
        "satellite": "Aqua",
        "acq_utc": "2026-10-03T08:52Z",
        "confidence": "79",
        "frp": 59.04,
        "brightness": 340.85,
        "daynight": "D"
      }
    },
    {
      "type": "Feature",
      "geometry": {
        "type": "Point",
        "coordinates": [
          106.431,
          -2.8714
        ]
      },
      "properties": {
        "source": "MODIS_NRT",
        "satellite": "Aqua",
        "acq_utc": "2026-10-03T08:52Z",
        "confidence": "100",
        "frp": 395.57,
        "brightness": 404.42,
        "daynight": "D"
      }
    },
    {
      "type": "Feature",
      "geometry": {
        "type": "Point",
        "coordinates": [
          106.4239,
          -2.87
        ]
      },
      "properties": {
        "source": "MODIS_NRT",
        "satellite": "Aqua",
        "acq_utc": "2026-10-03T08:52Z",
        "confidence": "92",
        "frp": 60.34,
        "brightness": 344.03,
        "daynight": "D"
      }
    },
    {
      "type": "Feature",
      "geometry": {
        "type": "Point",
        "coordinates": [
          106.4423,
          -2.8697
        ]
      },
      "properties": {
        "source": "MODIS_NRT",
        "satellite": "Aqua",
        "acq_utc": "2026-10-03T08:52Z",
        "confidence": "100",
        "frp": 127.72,
        "brightness": 363.77,
        "daynight": "D"
      }
    },
    {
      "type": "Feature",
      "geometry": {
        "type": "Point",
        "coordinates": [
          106.4352,
          -2.8683
        ]
      },
      "properties": {
        "source": "MODIS_NRT",
        "satellite": "Aqua",
        "acq_utc": "2026-10-03T08:52Z",
        "confidence": "100",
        "frp": 241.76,
        "brightness": 384.91,
        "daynight": "D"
      }
    },
    {
      "type": "Feature",
      "geometry": {
        "type": "Point",
        "coordinates": [
          106.0505,
          -2.701
        ]
      },
      "properties": {
        "source": "MODIS_NRT",
        "satellite": "Aqua",
        "acq_utc": "2026-10-03T08:52Z",
        "confidence": "93",
        "frp": 64.55,
        "brightness": 346.08,
        "daynight": "D"
      }
    },
    {
      "type": "Feature",
      "geometry": {
        "type": "Point",
        "coordinates": [
          106.2263,
          -2.5831
        ]
      },
      "properties": {
        "source": "MODIS_NRT",
        "satellite": "Aqua",
        "acq_utc": "2026-10-03T08:52Z",
        "confidence": "100",
        "frp": 200.03,
        "brightness": 378.76,
        "daynight": "D"
      }
    },
    {
      "type": "Feature",
      "geometry": {
        "type": "Point",
        "coordinates": [
          106.2373,
          -2.5814
        ]
      },
      "properties": {
        "source": "MODIS_NRT",
        "satellite": "Aqua",
        "acq_utc": "2026-10-03T08:52Z",
        "confidence": "100",
        "frp": 180.31,
        "brightness": 375.03,
        "daynight": "D"
      }
    },
    {
      "type": "Feature",
      "geometry": {
        "type": "Point",
        "coordinates": [
          104.3122,
          -2.3958
        ]
      },
      "properties": {
        "source": "MODIS_NRT",
        "satellite": "Aqua",
        "acq_utc": "2026-10-03T08:52Z",
        "confidence": "95",
        "frp": 58.06,
        "brightness": 349.87,
        "daynight": "D"
      }
    },
    {
      "type": "Feature",
      "geometry": {
        "type": "Point",
        "coordinates": [
          103.9704,
          -1.8827
        ]
      },
      "properties": {
        "source": "MODIS_NRT",
        "satellite": "Aqua",
        "acq_utc": "2026-10-03T08:52Z",
        "confidence": "96",
        "frp": 58.64,
        "brightness": 351.38,
        "daynight": "D"
      }
    },
    {
      "type": "Feature",
      "geometry": {
        "type": "Point",
        "coordinates": [
          103.9793,
          -1.8814
        ]
      },
      "properties": {
        "source": "MODIS_NRT",
        "satellite": "Aqua",
        "acq_utc": "2026-10-03T08:52Z",
        "confidence": "100",
        "frp": 82.01,
        "brightness": 360.46,
        "daynight": "D"
      }
    },
    {
      "type": "Feature",
      "geometry": {
        "type": "Point",
        "coordinates": [
          103.9247,
          -1.8804
        ]
      },
      "properties": {
        "source": "MODIS_NRT",
        "satellite": "Aqua",
        "acq_utc": "2026-10-03T08:52Z",
        "confidence": "97",
        "frp": 62.86,
        "brightness": 352.76,
        "daynight": "D"
      }
    },
    {
      "type": "Feature",
      "geometry": {
        "type": "Point",
        "coordinates": [
          103.9336,
          -1.8791
        ]
      },
      "properties": {
        "source": "MODIS_NRT",
        "satellite": "Aqua",
        "acq_utc": "2026-10-03T08:52Z",
        "confidence": "95",
        "frp": 56.76,
        "brightness": 350.17,
        "daynight": "D"
      }
    },
    {
      "type": "Feature",
      "geometry": {
        "type": "Point",
        "coordinates": [
          111.4127,
          -0.4055
        ]
      },
      "properties": {
        "source": "MODIS_NRT",
        "satellite": "Aqua",
        "acq_utc": "2026-10-03T08:52Z",
        "confidence": "62",
        "frp": 54.75,
        "brightness": 314.66,
        "daynight": "D"
      }
    },
    {
      "type": "Feature",
      "geometry": {
        "type": "Point",
        "coordinates": [
          105.5543,
          -3.7669
        ]
      },
      "properties": {
        "source": "MODIS_NRT",
        "satellite": "Terra",
        "acq_utc": "2026-10-03T13:06Z",
        "confidence": "99",
        "frp": 67.81,
        "brightness": 319.84,
        "daynight": "N"
      }
    },
    {
      "type": "Feature",
      "geometry": {
        "type": "Point",
        "coordinates": [
          105.5711,
          -3.7588
        ]
      },
      "properties": {
        "source": "MODIS_NRT",
        "satellite": "Terra",
        "acq_utc": "2026-10-03T13:06Z",
        "confidence": "99",
        "frp": 67.18,
        "brightness": 319.64,
        "daynight": "N"
      }
    },
    {
      "type": "Feature",
      "geometry": {
        "type": "Point",
        "coordinates": [
          105.6984,
          -3.5302
        ]
      },
      "properties": {
        "source": "MODIS_NRT",
        "satellite": "Terra",
        "acq_utc": "2026-10-03T13:06Z",
        "confidence": "100",
        "frp": 69.15,
        "brightness": 320.14,
        "daynight": "N"
      }
    },
    {
      "type": "Feature",
      "geometry": {
        "type": "Point",
        "coordinates": [
          105.7041,
          -3.5226
        ]
      },
      "properties": {
        "source": "MODIS_NRT",
        "satellite": "Terra",
        "acq_utc": "2026-10-03T13:06Z",
        "confidence": "99",
        "frp": 65.93,
        "brightness": 319.5,
        "daynight": "N"
      }
    },
    {
      "type": "Feature",
      "geometry": {
        "type": "Point",
        "coordinates": [
          111.8459,
          -3.2705
        ]
      },
      "properties": {
        "source": "MODIS_NRT",
        "satellite": "Terra",
        "acq_utc": "2026-10-03T13:06Z",
        "confidence": "100",
        "frp": 86.05,
        "brightness": 359.1,
        "daynight": "N"
      }
    },
    {
      "type": "Feature",
      "geometry": {
        "type": "Point",
        "coordinates": [
          112.5948,
          -3.2607
        ]
      },
      "properties": {
        "source": "MODIS_NRT",
        "satellite": "Terra",
        "acq_utc": "2026-10-03T13:06Z",
        "confidence": "100",
        "frp": 63.15,
        "brightness": 350.76,
        "daynight": "N"
      }
    },
    {
      "type": "Feature",
      "geometry": {
        "type": "Point",
        "coordinates": [
          112.3549,
          -3.1092
        ]
      },
      "properties": {
        "source": "MODIS_NRT",
        "satellite": "Terra",
        "acq_utc": "2026-10-03T13:06Z",
        "confidence": "100",
        "frp": 59.39,
        "brightness": 349.02,
        "daynight": "N"
      }
    },
    {
      "type": "Feature",
      "geometry": {
        "type": "Point",
        "coordinates": [
          112.3637,
          -3.1079
        ]
      },
      "properties": {
        "source": "MODIS_NRT",
        "satellite": "Terra",
        "acq_utc": "2026-10-03T13:06Z",
        "confidence": "100",
        "frp": 53.13,
        "brightness": 345.93,
        "daynight": "N"
      }
    },
    {
      "type": "Feature",
      "geometry": {
        "type": "Point",
        "coordinates": [
          112.7198,
          -2.9198
        ]
      },
      "properties": {
        "source": "MODIS_NRT",
        "satellite": "Terra",
        "acq_utc": "2026-10-03T13:06Z",
        "confidence": "100",
        "frp": 170.21,
        "brightness": 384.03,
        "daynight": "N"
      }
    },
    {
      "type": "Feature",
      "geometry": {
        "type": "Point",
        "coordinates": [
          112.7186,
          -2.911
        ]
      },
      "properties": {
        "source": "MODIS_NRT",
        "satellite": "Terra",
        "acq_utc": "2026-10-03T13:06Z",
        "confidence": "100",
        "frp": 52.63,
        "brightness": 344.83,
        "daynight": "N"
      }
    },
    {
      "type": "Feature",
      "geometry": {
        "type": "Point",
        "coordinates": [
          110.6981,
          -2.901
        ]
      },
      "properties": {
        "source": "MODIS_NRT",
        "satellite": "Terra",
        "acq_utc": "2026-10-03T13:06Z",
        "confidence": "100",
        "frp": 96.42,
        "brightness": 358.98,
        "daynight": "N"
      }
    },
    {
      "type": "Feature",
      "geometry": {
        "type": "Point",
        "coordinates": [
          110.7081,
          -2.8997
        ]
      },
      "properties": {
        "source": "MODIS_NRT",
        "satellite": "Terra",
        "acq_utc": "2026-10-03T13:06Z",
        "confidence": "100",
        "frp": 58.73,
        "brightness": 345.15,
        "daynight": "N"
      }
    },
    {
      "type": "Feature",
      "geometry": {
        "type": "Point",
        "coordinates": [
          110.8229,
          -2.8557
        ]
      },
      "properties": {
        "source": "MODIS_NRT",
        "satellite": "Terra",
        "acq_utc": "2026-10-03T13:06Z",
        "confidence": "100",
        "frp": 92.15,
        "brightness": 357.79,
        "daynight": "N"
      }
    },
    {
      "type": "Feature",
      "geometry": {
        "type": "Point",
        "coordinates": [
          110.8327,
          -2.8544
        ]
      },
      "properties": {
        "source": "MODIS_NRT",
        "satellite": "Terra",
        "acq_utc": "2026-10-03T13:06Z",
        "confidence": "100",
        "frp": 51.0,
        "brightness": 341.66,
        "daynight": "N"
      }
    },
    {
      "type": "Feature",
      "geometry": {
        "type": "Point",
        "coordinates": [
          111.6738,
          -2.8515
        ]
      },
      "properties": {
        "source": "MODIS_NRT",
        "satellite": "Terra",
        "acq_utc": "2026-10-03T13:06Z",
        "confidence": "100",
        "frp": 71.84,
        "brightness": 353.78,
        "daynight": "N"
      }
    },
    {
      "type": "Feature",
      "geometry": {
        "type": "Point",
        "coordinates": [
          110.7292,
          -2.8047
        ]
      },
      "properties": {
        "source": "MODIS_NRT",
        "satellite": "Terra",
        "acq_utc": "2026-10-03T13:06Z",
        "confidence": "100",
        "frp": 85.52,
        "brightness": 355.39,
        "daynight": "N"
      }
    },
    {
      "type": "Feature",
      "geometry": {
        "type": "Point",
        "coordinates": [
          112.1763,
          -2.6909
        ]
      },
      "properties": {
        "source": "MODIS_NRT",
        "satellite": "Terra",
        "acq_utc": "2026-10-03T13:06Z",
        "confidence": "100",
        "frp": 68.34,
        "brightness": 353.47,
        "daynight": "N"
      }
    },
    {
      "type": "Feature",
      "geometry": {
        "type": "Point",
        "coordinates": [
          111.5808,
          -2.6707
        ]
      },
      "properties": {
        "source": "MODIS_NRT",
        "satellite": "Terra",
        "acq_utc": "2026-10-03T13:06Z",
        "confidence": "100",
        "frp": 134.49,
        "brightness": 373.58,
        "daynight": "N"
      }
    },
    {
      "type": "Feature",
      "geometry": {
        "type": "Point",
        "coordinates": [
          111.59,
          -2.6695
        ]
      },
      "properties": {
        "source": "MODIS_NRT",
        "satellite": "Terra",
        "acq_utc": "2026-10-03T13:06Z",
        "confidence": "100",
        "frp": 98.44,
        "brightness": 363.12,
        "daynight": "N"
      }
    },
    {
      "type": "Feature",
      "geometry": {
        "type": "Point",
        "coordinates": [
          114.3339,
          -2.5771
        ]
      },
      "properties": {
        "source": "MODIS_NRT",
        "satellite": "Terra",
        "acq_utc": "2026-10-03T13:06Z",
        "confidence": "100",
        "frp": 52.97,
        "brightness": 344.42,
        "daynight": "N"
      }
    },
    {
      "type": "Feature",
      "geometry": {
        "type": "Point",
        "coordinates": [
          114.3294,
          -2.5226
        ]
      },
      "properties": {
        "source": "MODIS_NRT",
        "satellite": "Terra",
        "acq_utc": "2026-10-03T13:06Z",
        "confidence": "100",
        "frp": 64.26,
        "brightness": 350.18,
        "daynight": "N"
      }
    },
    {
      "type": "Feature",
      "geometry": {
        "type": "Point",
        "coordinates": [
          114.3281,
          -2.5135
        ]
      },
      "properties": {
        "source": "MODIS_NRT",
        "satellite": "Terra",
        "acq_utc": "2026-10-03T13:06Z",
        "confidence": "100",
        "frp": 119.29,
        "brightness": 368.74,
        "daynight": "N"
      }
    },
    {
      "type": "Feature",
      "geometry": {
        "type": "Point",
        "coordinates": [
          114.2682,
          -2.4941
        ]
      },
      "properties": {
        "source": "MODIS_NRT",
        "satellite": "Terra",
        "acq_utc": "2026-10-03T13:06Z",
        "confidence": "100",
        "frp": 55.5,
        "brightness": 346.08,
        "daynight": "N"
      }
    },
    {
      "type": "Feature",
      "geometry": {
        "type": "Point",
        "coordinates": [
          114.5,
          -2.4069
        ]
      },
      "properties": {
        "source": "MODIS_NRT",
        "satellite": "Terra",
        "acq_utc": "2026-10-03T13:06Z",
        "confidence": "100",
        "frp": 263.1,
        "brightness": 397.16,
        "daynight": "N"
      }
    },
    {
      "type": "Feature",
      "geometry": {
        "type": "Point",
        "coordinates": [
          114.4987,
          -2.3978
        ]
      },
      "properties": {
        "source": "MODIS_NRT",
        "satellite": "Terra",
        "acq_utc": "2026-10-03T13:06Z",
        "confidence": "100",
        "frp": 123.73,
        "brightness": 369.02,
        "daynight": "N"
      }
    },
    {
      "type": "Feature",
      "geometry": {
        "type": "Point",
        "coordinates": [
          114.5083,
          -2.3964
        ]
      },
      "properties": {
        "source": "MODIS_NRT",
        "satellite": "Terra",
        "acq_utc": "2026-10-03T13:06Z",
        "confidence": "100",
        "frp": 50.02,
        "brightness": 342.34,
        "daynight": "N"
      }
    },
    {
      "type": "Feature",
      "geometry": {
        "type": "Point",
        "coordinates": [
          114.0287,
          -2.3524
        ]
      },
      "properties": {
        "source": "MODIS_NRT",
        "satellite": "Terra",
        "acq_utc": "2026-10-03T13:06Z",
        "confidence": "100",
        "frp": 57.12,
        "brightness": 347.65,
        "daynight": "N"
      }
    },
    {
      "type": "Feature",
      "geometry": {
        "type": "Point",
        "coordinates": [
          114.5688,
          -2.3412
        ]
      },
      "properties": {
        "source": "MODIS_NRT",
        "satellite": "Terra",
        "acq_utc": "2026-10-03T13:06Z",
        "confidence": "100",
        "frp": 56.32,
        "brightness": 344.45,
        "daynight": "N"
      }
    },
    {
      "type": "Feature",
      "geometry": {
        "type": "Point",
        "coordinates": [
          114.2042,
          -2.3279
        ]
      },
      "properties": {
        "source": "MODIS_NRT",
        "satellite": "Terra",
        "acq_utc": "2026-10-03T13:06Z",
        "confidence": "100",
        "frp": 129.67,
        "brightness": 371.95,
        "daynight": "N"
      }
    },
    {
      "type": "Feature",
      "geometry": {
        "type": "Point",
        "coordinates": [
          114.2135,
          -2.3266
        ]
      },
      "properties": {
        "source": "MODIS_NRT",
        "satellite": "Terra",
        "acq_utc": "2026-10-03T13:06Z",
        "confidence": "100",
        "frp": 80.56,
        "brightness": 356.02,
        "daynight": "N"
      }
    },
    {
      "type": "Feature",
      "geometry": {
        "type": "Point",
        "coordinates": [
          105.1024,
          -3.4312
        ]
      },
      "properties": {
        "source": "MODIS_NRT",
        "satellite": "Terra",
        "acq_utc": "2026-10-03T13:08Z",
        "confidence": "100",
        "frp": 241.52,
        "brightness": 344.64,
        "daynight": "N"
      }
    },
    {
      "type": "Feature",
      "geometry": {
        "type": "Point",
        "coordinates": [
          105.0953,
          -3.4294
        ]
      },
      "properties": {
        "source": "MODIS_NRT",
        "satellite": "Terra",
        "acq_utc": "2026-10-03T13:08Z",
        "confidence": "100",
        "frp": 224.37,
        "brightness": 342.51,
        "daynight": "N"
      }
    },
    {
      "type": "Feature",
      "geometry": {
        "type": "Point",
        "coordinates": [
          105.1213,
          -3.4259
        ]
      },
      "properties": {
        "source": "MODIS_NRT",
        "satellite": "Terra",
        "acq_utc": "2026-10-03T13:08Z",
        "confidence": "99",
        "frp": 71.58,
        "brightness": 319.5,
        "daynight": "N"
      }
    },
    {
      "type": "Feature",
      "geometry": {
        "type": "Point",
        "coordinates": [
          105.1175,
          -3.397
        ]
      },
      "properties": {
        "source": "MODIS_NRT",
        "satellite": "Terra",
        "acq_utc": "2026-10-03T13:08Z",
        "confidence": "100",
        "frp": 129.66,
        "brightness": 330.19,
        "daynight": "N"
      }
    },
    {
      "type": "Feature",
      "geometry": {
        "type": "Point",
        "coordinates": [
          105.1434,
          -3.3935
        ]
      },
      "properties": {
        "source": "MODIS_NRT",
        "satellite": "Terra",
        "acq_utc": "2026-10-03T13:08Z",
        "confidence": "100",
        "frp": 299.26,
        "brightness": 350.79,
        "daynight": "N"
      }
    },
    {
      "type": "Feature",
      "geometry": {
        "type": "Point",
        "coordinates": [
          105.1691,
          -3.3901
        ]
      },
      "properties": {
        "source": "MODIS_NRT",
        "satellite": "Terra",
        "acq_utc": "2026-10-03T13:08Z",
        "confidence": "98",
        "frp": 70.22,
        "brightness": 318.89,
        "daynight": "N"
      }
    },
    {
      "type": "Feature",
      "geometry": {
        "type": "Point",
        "coordinates": [
          105.1156,
          -3.3825
        ]
      },
      "properties": {
        "source": "MODIS_NRT",
        "satellite": "Terra",
        "acq_utc": "2026-10-03T13:08Z",
        "confidence": "95",
        "frp": 62.99,
        "brightness": 317.29,
        "daynight": "N"
      }
    },
    {
      "type": "Feature",
      "geometry": {
        "type": "Point",
        "coordinates": [
          105.1415,
          -3.3791
        ]
      },
      "properties": {
        "source": "MODIS_NRT",
        "satellite": "Terra",
        "acq_utc": "2026-10-03T13:08Z",
        "confidence": "100",
        "frp": 90.99,
        "brightness": 323.27,
        "daynight": "N"
      }
    },
    {
      "type": "Feature",
      "geometry": {
        "type": "Point",
        "coordinates": [
          105.2418,
          -3.3514
        ]
      },
      "properties": {
        "source": "MODIS_NRT",
        "satellite": "Terra",
        "acq_utc": "2026-10-03T13:08Z",
        "confidence": "100",
        "frp": 200.66,
        "brightness": 340.48,
        "daynight": "N"
      }
    },
    {
      "type": "Feature",
      "geometry": {
        "type": "Point",
        "coordinates": [
          105.2361,
          -3.348
        ]
      },
      "properties": {
        "source": "MODIS_NRT",
        "satellite": "Terra",
        "acq_utc": "2026-10-03T13:08Z",
        "confidence": "100",
        "frp": 142.52,
        "brightness": 332.44,
        "daynight": "N"
      }
    },
    {
      "type": "Feature",
      "geometry": {
        "type": "Point",
        "coordinates": [
          105.0744,
          -3.3114
        ]
      },
      "properties": {
        "source": "MODIS_NRT",
        "satellite": "Terra",
        "acq_utc": "2026-10-03T13:08Z",
        "confidence": "85",
        "frp": 51.3,
        "brightness": 312.72,
        "daynight": "N"
      }
    },
    {
      "type": "Feature",
      "geometry": {
        "type": "Point",
        "coordinates": [
          105.1004,
          -3.3079
        ]
      },
      "properties": {
        "source": "MODIS_NRT",
        "satellite": "Terra",
        "acq_utc": "2026-10-03T13:08Z",
        "confidence": "96",
        "frp": 71.65,
        "brightness": 317.87,
        "daynight": "N"
      }
    },
    {
      "type": "Feature",
      "geometry": {
        "type": "Point",
        "coordinates": [
          105.409,
          -3.1753
        ]
      },
      "properties": {
        "source": "MODIS_NRT",
        "satellite": "Terra",
        "acq_utc": "2026-10-03T13:08Z",
        "confidence": "100",
        "frp": 359.69,
        "brightness": 358.46,
        "daynight": "N"
      }
    },
    {
      "type": "Feature",
      "geometry": {
        "type": "Point",
        "coordinates": [
          105.4332,
          -3.1721
        ]
      },
      "properties": {
        "source": "MODIS_NRT",
        "satellite": "Terra",
        "acq_utc": "2026-10-03T13:08Z",
        "confidence": "100",
        "frp": 327.22,
        "brightness": 355.76,
        "daynight": "N"
      }
    },
    {
      "type": "Feature",
      "geometry": {
        "type": "Point",
        "coordinates": [
          105.3748,
          -3.146
        ]
      },
      "properties": {
        "source": "MODIS_NRT",
        "satellite": "Terra",
        "acq_utc": "2026-10-03T13:08Z",
        "confidence": "100",
        "frp": 91.94,
        "brightness": 324.32,
        "daynight": "N"
      }
    },
    {
      "type": "Feature",
      "geometry": {
        "type": "Point",
        "coordinates": [
          105.3789,
          -3.1363
        ]
      },
      "properties": {
        "source": "MODIS_NRT",
        "satellite": "Terra",
        "acq_utc": "2026-10-03T13:08Z",
        "confidence": "100",
        "frp": 122.56,
        "brightness": 330.05,
        "daynight": "N"
      }
    },
    {
      "type": "Feature",
      "geometry": {
        "type": "Point",
        "coordinates": [
          105.3729,
          -3.1319
        ]
      },
      "properties": {
        "source": "MODIS_NRT",
        "satellite": "Terra",
        "acq_utc": "2026-10-03T13:08Z",
        "confidence": "98",
        "frp": 68.39,
        "brightness": 318.96,
        "daynight": "N"
      }
    },
    {
      "type": "Feature",
      "geometry": {
        "type": "Point",
        "coordinates": [
          105.0812,
          -3.0545
        ]
      },
      "properties": {
        "source": "MODIS_NRT",
        "satellite": "Terra",
        "acq_utc": "2026-10-03T13:08Z",
        "confidence": "87",
        "frp": 53.44,
        "brightness": 313.56,
        "daynight": "N"
      }
    },
    {
      "type": "Feature",
      "geometry": {
        "type": "Point",
        "coordinates": [
          105.0743,
          -3.0521
        ]
      },
      "properties": {
        "source": "MODIS_NRT",
        "satellite": "Terra",
        "acq_utc": "2026-10-03T13:08Z",
        "confidence": "99",
        "frp": 80.15,
        "brightness": 319.76,
        "daynight": "N"
      }
    },
    {
      "type": "Feature",
      "geometry": {
        "type": "Point",
        "coordinates": [
          108.1561,
          -2.8747
        ]
      },
      "properties": {
        "source": "MODIS_NRT",
        "satellite": "Terra",
        "acq_utc": "2026-10-03T13:08Z",
        "confidence": "100",
        "frp": 52.04,
        "brightness": 328.08,
        "daynight": "N"
      }
    },
    {
      "type": "Feature",
      "geometry": {
        "type": "Point",
        "coordinates": [
          106.4303,
          -2.8684
        ]
      },
      "properties": {
        "source": "MODIS_NRT",
        "satellite": "Terra",
        "acq_utc": "2026-10-03T13:08Z",
        "confidence": "100",
        "frp": 74.13,
        "brightness": 325.73,
        "daynight": "N"
      }
    },
    {
      "type": "Feature",
      "geometry": {
        "type": "Point",
        "coordinates": [
          111.5704,
          -2.663
        ]
      },
      "properties": {
        "source": "MODIS_NRT",
        "satellite": "Terra",
        "acq_utc": "2026-10-03T13:08Z",
        "confidence": "100",
        "frp": 84.8,
        "brightness": 358.36,
        "daynight": "N"
      }
    },
    {
      "type": "Feature",
      "geometry": {
        "type": "Point",
        "coordinates": [
          111.5796,
          -2.6617
        ]
      },
      "properties": {
        "source": "MODIS_NRT",
        "satellite": "Terra",
        "acq_utc": "2026-10-03T13:08Z",
        "confidence": "100",
        "frp": 233.38,
        "brightness": 394.43,
        "daynight": "N"
      }
    },
    {
      "type": "Feature",
      "geometry": {
        "type": "Point",
        "coordinates": [
          111.2126,
          -2.6471
        ]
      },
      "properties": {
        "source": "MODIS_NRT",
        "satellite": "Terra",
        "acq_utc": "2026-10-03T13:08Z",
        "confidence": "100",
        "frp": 67.13,
        "brightness": 350.23,
        "daynight": "N"
      }
    },
    {
      "type": "Feature",
      "geometry": {
        "type": "Point",
        "coordinates": [
          113.3221,
          -2.302
        ]
      },
      "properties": {
        "source": "MODIS_NRT",
        "satellite": "Terra",
        "acq_utc": "2026-10-03T13:08Z",
        "confidence": "100",
        "frp": 133.38,
        "brightness": 375.23,
        "daynight": "N"
      }
    },
    {
      "type": "Feature",
      "geometry": {
        "type": "Point",
        "coordinates": [
          111.4936,
          -2.2587
        ]
      },
      "properties": {
        "source": "MODIS_NRT",
        "satellite": "Terra",
        "acq_utc": "2026-10-03T13:08Z",
        "confidence": "100",
        "frp": 104.03,
        "brightness": 365.13,
        "daynight": "N"
      }
    },
    {
      "type": "Feature",
      "geometry": {
        "type": "Point",
        "coordinates": [
          113.7169,
          -2.1101
        ]
      },
      "properties": {
        "source": "MODIS_NRT",
        "satellite": "Terra",
        "acq_utc": "2026-10-03T13:08Z",
        "confidence": "100",
        "frp": 66.26,
        "brightness": 352.0,
        "daynight": "N"
      }
    },
    {
      "type": "Feature",
      "geometry": {
        "type": "Point",
        "coordinates": [
          113.7259,
          -2.1088
        ]
      },
      "properties": {
        "source": "MODIS_NRT",
        "satellite": "Terra",
        "acq_utc": "2026-10-03T13:08Z",
        "confidence": "100",
        "frp": 81.14,
        "brightness": 358.18,
        "daynight": "N"
      }
    },
    {
      "type": "Feature",
      "geometry": {
        "type": "Point",
        "coordinates": [
          114.1906,
          -2.0904
        ]
      },
      "properties": {
        "source": "MODIS_NRT",
        "satellite": "Terra",
        "acq_utc": "2026-10-03T13:08Z",
        "confidence": "100",
        "frp": 52.75,
        "brightness": 344.89,
        "daynight": "N"
      }
    },
    {
      "type": "Feature",
      "geometry": {
        "type": "Point",
        "coordinates": [
          113.6962,
          -1.9832
        ]
      },
      "properties": {
        "source": "MODIS_NRT",
        "satellite": "Terra",
        "acq_utc": "2026-10-03T13:08Z",
        "confidence": "100",
        "frp": 52.0,
        "brightness": 345.68,
        "daynight": "N"
      }
    },
    {
      "type": "Feature",
      "geometry": {
        "type": "Point",
        "coordinates": [
          111.2963,
          -0.2677
        ]
      },
      "properties": {
        "source": "MODIS_NRT",
        "satellite": "Terra",
        "acq_utc": "2026-10-03T13:08Z",
        "confidence": "100",
        "frp": 55.66,
        "brightness": 346.45,
        "daynight": "N"
      }
    },
    {
      "type": "Feature",
      "geometry": {
        "type": "Point",
        "coordinates": [
          116.8481,
          0.2178
        ]
      },
      "properties": {
        "source": "MODIS_NRT",
        "satellite": "Terra",
        "acq_utc": "2026-10-03T13:08Z",
        "confidence": "100",
        "frp": 83.08,
        "brightness": 338.07,
        "daynight": "N"
      }
    },
    {
      "type": "Feature",
      "geometry": {
        "type": "Point",
        "coordinates": [
          116.8322,
          0.227
        ]
      },
      "properties": {
        "source": "MODIS_NRT",
        "satellite": "Terra",
        "acq_utc": "2026-10-03T13:08Z",
        "confidence": "100",
        "frp": 66.37,
        "brightness": 333.47,
        "daynight": "N"
      }
    },
    {
      "type": "Feature",
      "geometry": {
        "type": "Point",
        "coordinates": [
          116.8466,
          0.229
        ]
      },
      "properties": {
        "source": "MODIS_NRT",
        "satellite": "Terra",
        "acq_utc": "2026-10-03T13:08Z",
        "confidence": "100",
        "frp": 88.98,
        "brightness": 340.58,
        "daynight": "N"
      }
    },
    {
      "type": "Feature",
      "geometry": {
        "type": "Point",
        "coordinates": [
          116.8307,
          0.2381
        ]
      },
      "properties": {
        "source": "MODIS_NRT",
        "satellite": "Terra",
        "acq_utc": "2026-10-03T13:08Z",
        "confidence": "100",
        "frp": 261.72,
        "brightness": 373.3,
        "daynight": "N"
      }
    },
    {
      "type": "Feature",
      "geometry": {
        "type": "Point",
        "coordinates": [
          116.845,
          0.2401
        ]
      },
      "properties": {
        "source": "MODIS_NRT",
        "satellite": "Terra",
        "acq_utc": "2026-10-03T13:08Z",
        "confidence": "100",
        "frp": 178.99,
        "brightness": 360.52,
        "daynight": "N"
      }
    }
  ]
}